H1 CPF  1  DLR 2021 05 09 10  6292 technosat            
H2  1704205 6203    42829 2021 05 09 00 00 00 2021 05 16 00 00 00    60 1 1  0 0 0
H9
10 0 59344  57600.000000  0       -209990.670      -3500134.702      -6025420.660
10 0 59344  57660.000000  0       -366115.184      -3861889.834      -5792660.645
10 0 59344  57720.000000  0       -523790.297      -4206051.319      -5535393.103
10 0 59344  57780.000000  0       -682192.708      -4531157.842      -5254698.860
10 0 59344  57840.000000  0       -840483.168      -4835834.306      -4951758.410
10 0 59344  57900.000000  0       -997810.800      -5118797.902      -4627847.170
10 0 59344  57960.000000  0      -1153317.531      -5378863.789      -4284330.295
10 0 59344  58020.000000  0      -1306142.621      -5614950.345      -3922657.062
10 0 59344  58080.000000  0      -1455427.259      -5826083.957      -3544354.873
10 0 59344  58140.000000  0      -1600319.207      -6011403.341      -3151022.887
10 0 59344  58200.000000  0      -1739977.471      -6170163.363      -2744325.306
10 0 59344  58260.000000  0      -1873576.981      -6301738.356      -2325984.329
10 0 59344  58320.000000  0      -2000313.224      -6405624.876      -1897772.768
10 0 59344  58380.000000  0      -2119406.812      -6481443.868      -1461506.411
10 0 59344  58440.000000  0      -2230107.963      -6528942.254      -1019036.143
10 0 59344  58500.000000  0      -2331700.874      -6547993.875       -572239.870
10 0 59344  58560.000000  0      -2423507.944      -6538599.811       -123014.304
10 0 59344  58620.000000  0      -2504893.820      -6500888.068        326733.339
10 0 59344  58680.000000  0      -2575269.236      -6435112.652        775093.696
10 0 59344  58740.000000  0      -2634094.635      -6341652.038       1220163.624
10 0 59344  58800.000000  0      -2680883.544      -6221007.016       1660054.547
10 0 59344  58860.000000  0      -2715205.675      -6073797.936       2092900.711
10 0 59344  58920.000000  0      -2736689.740      -5900761.386       2516867.295
10 0 59344  58980.000000  0      -2745025.949      -5702746.329       2930158.362
10 0 59344  59040.000000  0      -2739968.191      -5480709.709       3331024.586
10 0 59344  59100.000000  0      -2721335.885      -5235711.582       3717770.717
10 0 59344  59160.000000  0      -2689015.505      -4968909.808       4088762.780
10 0 59344  59220.000000  0      -2642961.767      -4681554.313       4442434.938
10 0 59344  59280.000000  0      -2583198.499      -4374980.995       4777296.037
10 0 59344  59340.000000  0      -2509819.165      -4050605.266       5091935.823
10 0 59344  59400.000000  0      -2422986.994      -3709915.215       5385030.757
10 0 59344  59460.000000  0      -2322934.736      -3354464.527       5655349.329
10 0 59344  59520.000000  0      -2209964.115      -2985865.251       5901756.985
10 0 59344  59580.000000  0      -2084444.915      -2605780.372       6123220.645
10 0 59344  59640.000000  0      -1946813.748      -2215916.247       6318812.777
10 0 59344  59700.000000  0      -1797572.497      -1818014.907       6487715.075
10 0 59344  59760.000000  0      -1637286.445      -1413846.191       6629221.663
10 0 59344  59820.000000  0      -1466582.084      -1005199.820       6742741.756
10 0 59344  59880.000000  0      -1286144.676       -593877.500       6827801.801
10 0 59344  59940.000000  0      -1096715.544       -181685.142       6884047.224
10 0 59344  60000.000000  0       -899089.065        229574.927       6911243.847
10 0 59344  60060.000000  0       -694109.364        638111.769       6909278.804
10 0 59344  60120.000000  0       -482666.738       1042153.547       6878160.962
10 0 59344  60180.000000  0       -265693.831       1439955.097       6818020.869
10 0 59344  60240.000000  0        -44161.582       1829805.395       6729110.268
10 0 59344  60300.000000  0        180925.082       2210034.848       6611801.093
10 0 59344  60360.000000  0        408531.718       2579022.329       6466584.004
10 0 59344  60420.000000  0        637599.018       2935202.034       6294066.549
10 0 59344  60480.000000  0        867047.655       3277070.148       6094970.852
10 0 59344  60540.000000  0       1095783.275       3603191.247       5870130.796
10 0 59344  60600.000000  0       1322701.623       3912204.393       5620488.779
10 0 59344  60660.000000  0       1546693.797       4202828.926       5347092.036
10 0 59344  60720.000000  0       1766651.616       4473869.968       5051088.530
10 0 59344  60780.000000  0       1981473.079       4724223.545       4733722.320
10 0 59344  60840.000000  0       2190067.819       4952881.235       4396328.520
10 0 59344  60900.000000  0       2391362.580       5158934.398       4040327.917
10 0 59344  60960.000000  0       2584306.702       5341578.004       3667221.213
10 0 59344  61020.000000  0       2767877.574       5500114.156       3278582.960
10 0 59344  61080.000000  0       2941086.093       5633955.188       2876054.908
10 0 59344  61140.000000  0       3102981.948       5742626.056       2461338.946
10 0 59344  61200.000000  0       3252658.757       5825766.114       2036189.815
10 0 59344  61260.000000  0       3389258.991       5883130.393       1602407.648
10 0 59344  61320.000000  0       3511978.714       5914590.415       1161830.250
10 0 59344  61380.000000  0       3620072.104       5920134.433        716325.147
10 0 59344  61440.000000  0       3712855.768       5899867.078        267781.466
10 0 59344  61500.000000  0       3789712.767       5854008.403       -181898.301
10 0 59344  61560.000000  0       3850096.253       5782892.361       -630806.585
10 0 59344  61620.000000  0       3893532.815       5686964.788      -1077039.009
10 0 59344  61680.000000  0       3919625.498       5566780.866      -1518702.714
10 0 59344  61740.000000  0       3928056.438       5423001.998      -1953924.636
10 0 59344  61800.000000  0       3918589.071       5256392.193      -2380859.656
10 0 59344  61860.000000  0       3891069.945       5067813.970      -2797698.628
10 0 59344  61920.000000  0       3845430.109       4858223.782      -3202676.211
10 0 59344  61980.000000  0       3781686.060       4628667.008      -3594078.454
10 0 59344  62040.000000  0       3699940.272       4380272.572      -3970250.063
10 0 59344  62100.000000  0       3600381.353       4114247.271      -4329601.387
10 0 59344  62160.000000  0       3483283.774       3831869.759      -4670615.162
10 0 59344  62220.000000  0       3349007.142       3534484.211      -4991852.880
10 0 59344  62280.000000  0       3197995.054       3223493.733      -5291960.730
10 0 59344  62340.000000  0       3030773.566       2900353.556      -5569675.138
10 0 59344  62400.000000  0       2847949.280       2566564.110      -5823827.877
10 0 59344  62460.000000  0       2650207.048       2223663.960      -6053350.819
10 0 59344  62520.000000  0       2438307.268       1873222.580      -6257280.180
10 0 59344  62580.000000  0       2213082.871       1516833.131      -6434760.260
10 0 59344  62640.000000  0       1975435.999       1156105.209      -6585046.771
10 0 59344  62700.000000  0       1726334.381        792657.613      -6707509.712
10 0 59344  62760.000000  0       1466807.411        428111.163      -6801635.860
10 0 59344  62820.000000  0       1197941.843         64081.514      -6867030.856
10 0 59344  62880.000000  0        920877.180       -297827.998      -6903420.690
10 0 59344  62940.000000  0        636800.866       -656033.350      -6910652.664
10 0 59344  63000.000000  0        346943.268      -1008976.640      -6888695.943
10 0 59344  63060.000000  0         52572.433      -1355132.756      -6837641.658
10 0 59344  63120.000000  0       -245011.339      -1693015.822      -6757702.591
10 0 59344  63180.000000  0       -544481.191      -2021185.530      -6649212.473
10 0 59344  63240.000000  0       -844489.577      -2338253.295      -6512624.730
10 0 59344  63300.000000  0      -1143674.271      -2642888.163      -6348510.701
10 0 59344  63360.000000  0      -1440664.446      -2933822.376      -6157557.400
10 0 59344  63420.000000  0      -1734086.883      -3209856.674      -5940564.887
10 0 59344  63480.000000  0      -2022572.268      -3469865.313      -5698443.191
10 0 59344  63540.000000  0      -2304761.561      -3712800.797      -5432208.806
10 0 59344  63600.000000  0      -2579312.458      -3937698.297      -5142980.697
10 0 59344  63660.000000  0      -2844905.852      -4143679.685      -4831975.791
10 0 59344  63720.000000  0      -3100252.227      -4329957.131      -4500504.029
10 0 59344  63780.000000  0      -3344097.975      -4495836.296      -4149963.010
10 0 59344  63840.000000  0      -3575231.613      -4640719.102      -3781832.256
10 0 59344  63900.000000  0      -3792489.907      -4764106.083      -3397667.091
10 0 59344  63960.000000  0      -3994763.831      -4865598.264      -2999092.107
10 0 59344  64020.000000  0      -4181004.320      -4944898.538      -2587794.294
10 0 59344  64080.000000  0      -4350227.785      -5001812.573      -2165515.869
10 0 59344  64140.000000  0      -4501521.361      -5036249.223      -1734046.794
10 0 59344  64200.000000  0      -4634047.846      -5048220.432      -1295217.053
10 0 59344  64260.000000  0      -4747050.297      -5037840.623       -850888.722
10 0 59344  64320.000000  0      -4839856.264      -5005325.615       -402947.859
10 0 59344  64380.000000  0      -4911881.623      -4950991.027         46703.744
10 0 59344  64440.000000  0      -4962634.004      -4875250.186        496156.906
10 0 59344  64500.000000  0      -4991715.760      -4778611.534        943503.464
10 0 59344  64560.000000  0      -4998826.436      -4661675.557       1386844.666
10 0 59344  64620.000000  0      -4983764.765      -4525131.253       1824299.475
10 0 59344  64680.000000  0      -4946430.181      -4369752.216       2254012.756
10 0 59344  64740.000000  0      -4886823.840      -4196392.308       2674163.352
99
